start=new Date('2023-01-15T00:00:00.000Z').valueOf();
sats=[{"PERIOD":"95.592","MEAN_ANOMALY":"267.3378","TLE_LINE2":"2 45563  53.0541 208.5839 0001507  92.7783 267.3378 15.06407245151453","DECAY_DATE":null,"MEAN_MOTION":"15.06407245","PERIAPSIS":"546.148","REV_AT_EPOCH":"15145","LAUNCH_DATE":"2020-04-22","NORAD_CAT_ID":"45563","MEAN_ELEMENT_THEORY":"SGP4","SEMIMAJOR_AXIS":"6925.326","RCS_SIZE":"LARGE","INCLINATION":"53.0541","SITE":"AFETR","TLE_LINE1":"1 45563U 20025AJ  23014.81906269  .00003248  00000-0  23679-3 0  9990","CLASSIFICATION_TYPE":"U","TIME_SYSTEM":"UTC","EPHEMERIS_TYPE":"0","MEAN_MOTION_DDOT":"0.0000000000000","ECCENTRICITY":"0.00015070","OBJECT_NAME":"STARLINK-1355","MEAN_MOTION_DOT":"0.00003248","OBJECT_TYPE":"PAYLOAD","COUNTRY_CODE":"US","GP_ID":"223021534","CENTER_NAME":"EARTH","EPOCH":"2023-01-14T19:39:27.016416","ELEMENT_SET_NO":"999","OBJECT_ID":"2020-025AJ","FILE":"3744967","REF_FRAME":"TEME","ARG_OF_PERICENTER":"92.7783","APOAPSIS":"548.235","BSTAR":"0.00023679000000","RA_OF_ASC_NODE":"208.5839"},{"OBJECT_ID":"2020-025AK","FILE":"3745092","ELEMENT_SET_NO":"999","EPOCH":"2023-01-14T21:09:41.052960","BSTAR":"0.00019196000000","RA_OF_ASC_NODE":"208.3111","REF_FRAME":"TEME","ARG_OF_PERICENTER":"91.3684","APOAPSIS":"548.231","OBJECT_NAME":"STARLINK-1356","MEAN_MOTION_DOT":"0.00002579","CENTER_NAME":"EARTH","OBJECT_TYPE":"PAYLOAD","COUNTRY_CODE":"US","GP_ID":"223024361","INCLINATION":"53.0506","SITE":"AFETR","SEMIMAJOR_AXIS":"6925.340","RCS_SIZE":"LARGE","TIME_SYSTEM":"UTC","EPHEMERIS_TYPE":"0","MEAN_MOTION_DDOT":"0.0000000000000","ECCENTRICITY":"0.00014810","CLASSIFICATION_TYPE":"U","TLE_LINE1":"1 45564U 20025AK  23014.88172515  .00002579  00000-0  19196-3 0  9992","MEAN_ANOMALY":"268.7475","TLE_LINE2":"2 45564  53.0506 208.3111 0001481  91.3684 268.7475 15.06402826151466","PERIOD":"95.592","MEAN_MOTION":"15.06402826","DECAY_DATE":null,"REV_AT_EPOCH":"15146","PERIAPSIS":"546.179","MEAN_ELEMENT_THEORY":"SGP4","LAUNCH_DATE":"2020-04-22","NORAD_CAT_ID":"45564"},{"COUNTRY_CODE":"US","OBJECT_TYPE":"PAYLOAD","GP_ID":"223021533","CENTER_NAME":"EARTH","OBJECT_NAME":"STARLINK-1357","MEAN_MOTION_DOT":"0.00003932","ARG_OF_PERICENTER":"88.7507","REF_FRAME":"TEME","APOAPSIS":"548.082","RA_OF_ASC_NODE":"208.6457","BSTAR":"0.00028276000000","EPOCH":"2023-01-14T19:23:32.739648","ELEMENT_SET_NO":"999","FILE":"3744967","OBJECT_ID":"2020-025AL","DECAY_DATE":null,"MEAN_MOTION":"15.06393663","LAUNCH_DATE":"2020-04-22","NORAD_CAT_ID":"45565","MEAN_ELEMENT_THEORY":"SGP4","PERIAPSIS":"546.384","REV_AT_EPOCH":"15145","PERIOD":"95.593","MEAN_ANOMALY":"271.3622","TLE_LINE2":"2 45565  53.0545 208.6457 0001226  88.7507 271.3622 15.06393663151458","CLASSIFICATION_TYPE":"U","TLE_LINE1":"1 45565U 20025AL  23014.80801782  .00003932  00000-0  28276-3 0  9993","EPHEMERIS_TYPE":"0","TIME_SYSTEM":"UTC","MEAN_MOTION_DDOT":"0.0000000000000","ECCENTRICITY":"0.00012260","SEMIMAJOR_AXIS":"6925.368","RCS_SIZE":"LARGE","INCLINATION":"53.0545","SITE":"AFETR"},{"INCLINATION":"53.0517","SITE":"AFETR","SEMIMAJOR_AXIS":"6925.390","RCS_SIZE":"LARGE","TIME_SYSTEM":"UTC","EPHEMERIS_TYPE":"0","MEAN_MOTION_DDOT":"0.0000000000000","ECCENTRICITY":"0.00013010","CLASSIFICATION_TYPE":"U","TLE_LINE1":"1 45566U 20025AM  23014.88911211  .00012645  00000-0  86660-3 0  9993","TLE_LINE2":"2 45566  53.0517 208.2756 0001301  86.7186 273.3952 15.06386426151469","MEAN_ANOMALY":"273.3952","PERIOD":"95.593","DECAY_DATE":null,"MEAN_MOTION":"15.06386426","PERIAPSIS":"546.354","REV_AT_EPOCH":"15146","LAUNCH_DATE":"2020-04-22","NORAD_CAT_ID":"45566","MEAN_ELEMENT_THEORY":"SGP4","OBJECT_ID":"2020-025AM","FILE":"3745092","ELEMENT_SET_NO":"999","EPOCH":"2023-01-14T21:20:19.286304","BSTAR":"0.00086660000000","RA_OF_ASC_NODE":"208.2756","REF_FRAME":"TEME","ARG_OF_PERICENTER":"86.7186","APOAPSIS":"548.156","OBJECT_NAME":"STARLINK-1358","MEAN_MOTION_DOT":"0.00012645","CENTER_NAME":"EARTH","OBJECT_TYPE":"PAYLOAD","COUNTRY_CODE":"US","GP_ID":"223024531"},{"MEAN_MOTION_DOT":"0.00003528","OBJECT_NAME":"STARLINK-1361","GP_ID":"223021352","COUNTRY_CODE":"US","OBJECT_TYPE":"PAYLOAD","CENTER_NAME":"EARTH","ELEMENT_SET_NO":"999","EPOCH":"2023-01-14T20:00:40.667328","FILE":"3744967","OBJECT_ID":"2020-025AN","APOAPSIS":"548.131","ARG_OF_PERICENTER":"88.4692","REF_FRAME":"TEME","RA_OF_ASC_NODE":"208.5147","BSTAR":"0.00025563000000","PERIOD":"95.592","TLE_LINE2":"2 45567  53.0526 208.5147 0001309  88.4692 271.6446 15.06396336151455","MEAN_ANOMALY":"271.6446","NORAD_CAT_ID":"45567","LAUNCH_DATE":"2020-04-22","MEAN_ELEMENT_THEORY":"SGP4","PERIAPSIS":"546.318","REV_AT_EPOCH":"15145","MEAN_MOTION":"15.06396336","DECAY_DATE":null,"RCS_SIZE":"LARGE","SEMIMAJOR_AXIS":"6925.360","SITE":"AFETR","INCLINATION":"53.0526","CLASSIFICATION_TYPE":"U","TLE_LINE1":"1 45567U 20025AN  23014.83380402  .00003528  00000-0  25563-3 0  9996","MEAN_MOTION_DDOT":"0.0000000000000","ECCENTRICITY":"0.00013090","EPHEMERIS_TYPE":"0","TIME_SYSTEM":"UTC"},{"NORAD_CAT_ID":"45568","LAUNCH_DATE":"2020-04-22","MEAN_ELEMENT_THEORY":"SGP4","PERIAPSIS":"546.217","REV_AT_EPOCH":"15141","DECAY_DATE":null,"MEAN_MOTION":"15.06395957","TLE_LINE2":"2 45568  53.0531 209.9018 0001457  74.8589 285.2561 15.06395957151415","MEAN_ANOMALY":"285.2561","PERIOD":"95.592","MEAN_MOTION_DDOT":"0.0000000000000","ECCENTRICITY":"0.00014570","EPHEMERIS_TYPE":"0","TIME_SYSTEM":"UTC","CLASSIFICATION_TYPE":"U","TLE_LINE1":"1 45568U 20025AP  23014.58319428  .00003511  00000-0  25453-3 0  9999","SITE":"AFETR","INCLINATION":"53.0531","RCS_SIZE":"LARGE","SEMIMAJOR_AXIS":"6925.361","CENTER_NAME":"EARTH","GP_ID":"223021354","OBJECT_TYPE":"PAYLOAD","COUNTRY_CODE":"US","MEAN_MOTION_DOT":"0.00003511","OBJECT_NAME":"STARLINK-1363","RA_OF_ASC_NODE":"209.9018","BSTAR":"0.00025453000000","APOAPSIS":"548.235","ARG_OF_PERICENTER":"74.8589","REF_FRAME":"TEME","FILE":"3744967","OBJECT_ID":"2020-025AP","EPOCH":"2023-01-14T13:59:47.985792","ELEMENT_SET_NO":"999"},{"PERIOD":"95.592","MEAN_ANOMALY":"314.8464","TLE_LINE2":"2 45569  53.0519 209.7099 0002107  45.2696 314.8464 15.06395856151412","NORAD_CAT_ID":"45569","LAUNCH_DATE":"2020-04-22","MEAN_ELEMENT_THEORY":"SGP4","PERIAPSIS":"545.767","REV_AT_EPOCH":"15141","MEAN_MOTION":"15.06395856","DECAY_DATE":null,"RCS_SIZE":"LARGE","SEMIMAJOR_AXIS":"6925.361","SITE":"AFETR","INCLINATION":"53.0519","TLE_LINE1":"1 45569U 20025AQ  23014.57210177  .00000466  00000-0  50181-4 0  9993","CLASSIFICATION_TYPE":"U","MEAN_MOTION_DDOT":"0.0000000000000","ECCENTRICITY":"0.00021070","EPHEMERIS_TYPE":"0","TIME_SYSTEM":"UTC","MEAN_MOTION_DOT":"0.00000466","OBJECT_NAME":"STARLINK-1366","GP_ID":"222997310","OBJECT_TYPE":"PAYLOAD","COUNTRY_CODE":"US","CENTER_NAME":"EARTH","ELEMENT_SET_NO":"999","EPOCH":"2023-01-14T13:43:49.592928","FILE":"3744677","OBJECT_ID":"2020-025AQ","APOAPSIS":"548.685","ARG_OF_PERICENTER":"45.2696","REF_FRAME":"TEME","RA_OF_ASC_NODE":"209.7099","BSTAR":"0.00005018100000"},{"RCS_SIZE":"LARGE","SEMIMAJOR_AXIS":"6925.370","SITE":"AFETR","INCLINATION":"53.0528","TLE_LINE1":"1 45570U 20025AR  23013.83491411  .00001448  00000-0  11608-3 0  9996","CLASSIFICATION_TYPE":"U","MEAN_MOTION_DDOT":"0.0000000000000","ECCENTRICITY":"0.00013250","TIME_SYSTEM":"UTC","EPHEMERIS_TYPE":"0","PERIOD":"95.593","TLE_LINE2":"2 45570  53.0528 213.0048 0001325  87.3548 272.7593 15.06392949151303","MEAN_ANOMALY":"272.7593","REV_AT_EPOCH":"15130","PERIAPSIS":"546.318","NORAD_CAT_ID":"45570","LAUNCH_DATE":"2020-04-22","MEAN_ELEMENT_THEORY":"SGP4","MEAN_MOTION":"15.06392949","DECAY_DATE":null,"ELEMENT_SET_NO":"999","EPOCH":"2023-01-13T20:02:16.579104","OBJECT_ID":"2020-025AR","FILE":"3744068","APOAPSIS":"548.153","REF_FRAME":"TEME","ARG_OF_PERICENTER":"87.3548","BSTAR":"0.00011608000000","RA_OF_ASC_NODE":"213.0048","MEAN_MOTION_DOT":"0.00001448","OBJECT_NAME":"STARLINK-1376","GP_ID":"222984970","OBJECT_TYPE":"PAYLOAD","COUNTRY_CODE":"US","CENTER_NAME":"EARTH"},{"REV_AT_EPOCH":"15146","PERIAPSIS":"546.086","MEAN_ELEMENT_THEORY":"SGP4","LAUNCH_DATE":"2020-04-22","NORAD_CAT_ID":"45571","DECAY_DATE":null,"MEAN_MOTION":"15.06399193","PERIOD":"95.592","TLE_LINE2":"2 45571  53.0540 202.6307 0001632  86.5282 273.5893 15.06399193151464","MEAN_ANOMALY":"273.5893","TLE_LINE1":"1 45571U 20025AS  23013.91692984  .00000397  00000-0  45563-4 0  9994","CLASSIFICATION_TYPE":"U","MEAN_MOTION_DDOT":"0.0000000000000","ECCENTRICITY":"0.00016320","TIME_SYSTEM":"UTC","EPHEMERIS_TYPE":"0","RCS_SIZE":"LARGE","SEMIMAJOR_AXIS":"6925.351","SITE":"AFETR","INCLINATION":"53.0540","GP_ID":"222977544","COUNTRY_CODE":"US","OBJECT_TYPE":"PAYLOAD","CENTER_NAME":"EARTH","MEAN_MOTION_DOT":"0.00000397","OBJECT_NAME":"STARLINK-1261","APOAPSIS":"548.346","REF_FRAME":"TEME","ARG_OF_PERICENTER":"86.5282","BSTAR":"0.00004556300000","RA_OF_ASC_NODE":"202.6307","ELEMENT_SET_NO":"999","EPOCH":"2023-01-13T22:00:22.738176","OBJECT_ID":"2020-025AS","FILE":"3743767"},{"ARG_OF_PERICENTER":"91.9923","REF_FRAME":"TEME","APOAPSIS":"548.335","RA_OF_ASC_NODE":"201.1845","BSTAR":"0.00004641900000","ELEMENT_SET_NO":"999","EPOCH":"2023-01-14T05:47:27.664224","FILE":"3744520","OBJECT_ID":"2020-025AT","OBJECT_TYPE":"PAYLOAD","COUNTRY_CODE":"US","GP_ID":"222993568","CENTER_NAME":"EARTH","OBJECT_NAME":"STARLINK-1320","MEAN_MOTION_DOT":"0.00000410","TLE_LINE1":"1 45572U 20025AT  23014.24129241  .00000410  00000-0  46419-4 0  9990","CLASSIFICATION_TYPE":"U","EPHEMERIS_TYPE":"0","TIME_SYSTEM":"UTC","MEAN_MOTION_DDOT":"0.0000000000000","ECCENTRICITY":"0.00016010","SEMIMAJOR_AXIS":"6925.361","RCS_SIZE":"LARGE","INCLINATION":"53.0528","SITE":"AFETR","DECAY_DATE":null,"MEAN_MOTION":"15.06395786","MEAN_ELEMENT_THEORY":"SGP4","LAUNCH_DATE":"2020-04-22","NORAD_CAT_ID":"45572","PERIAPSIS":"546.118","REV_AT_EPOCH":"15150","PERIOD":"95.592","MEAN_ANOMALY":"268.1250","TLE_LINE2":"2 45572  53.0528 201.1845 0001601  91.9923 268.1250 15.06395786151506"}];
